ONEWEB-0207             
1 48242U 21031AJ  25008.80276322  .00000030  00000+0  46581-4 0  9992
2 48242  87.8988  33.9575 0001999  90.1910 269.9448 13.14505516179404
ONEWEB-0208             
1 48243U 21031AK  25009.08900002 -.00000492  00000+0 -13625-2 0  9998
2 48243  87.8986  33.9147 0001905  98.0847 262.0499 13.14502419179455
ONEWEB-0200             
1 48244U 21031AL  25008.82418328  .00000220  00000+0  55937-3 0  9995
2 48244  87.8987  33.9619 0001903  99.5114 260.6231 13.14501187179349
ONEWEB-0217             
1 48245U 21031AM  25008.61168345 -.00000007  00000+0 -54445-4 0  9993
2 48245  87.8987  33.9887 0001901 103.1157 257.0185 13.14500748179265
ONEWEB-0211             
1 48767U 21045A   25008.90792561  .00000099  00000+0  22785-3 0  9992
2 48767  87.9069   3.5573 0001604  92.4000 267.7314 13.15549500175480
ONEWEB-0223             
1 48768U 21045B   25008.70193142 -.00000004  00000+0 -45643-4 0  9998
2 48768  87.9071   3.6119 0001369 101.1831 258.9453 13.15548187175441
ONEWEB-0230             
1 48769U 21045C   25008.90157311  .00000114  00000+0  26800-3 0  9992
2 48769  87.9071   3.6406 0001661  84.2718 275.8602 13.15546621175738
ONEWEB-0237             
1 48770U 21045D   25008.89048383  .00000180  00000+0  44456-3 0  9990
2 48770  87.9077   3.5862 0001435  95.9828 264.1465 13.15546653175453
